{
  "type": "FeatureCollection",
  "features": [
    {
      "type": "Feature",
      "properties": {
        "norad_id": 28890,
        "name": "BEIJING 1",
        "group": "dmc",
        "lat": -40.83344253679614,
        "lon": -76.73675497537742,
        "alt_km": 684.9636722751429,
        "timestamp": "2025-12-08T23:34:03.636289+00:00",
        "meta_object_name": "BEIJING 1",
        "meta_object_id": "2005-043A",
        "meta_epoch": "2025-12-08T14:21:19.951776",
        "meta_mean_motion": 14.63360846,
        "meta_eccentricity": 0.00151637,
        "meta_inclination": 98.2657,
        "meta_ra_of_asc_node": 110.0956,
        "meta_arg_of_pericenter": 153.8918,
        "meta_mean_anomaly": 206.3051,
        "meta_ephemeris_type": 0,
        "meta_classification_type": "U",
        "meta_norad_cat_id": 28890,
        "meta_element_set_no": 999,
        "meta_rev_at_epoch": 7277,
        "meta_bstar": 0.00017844326,
        "meta_mean_motion_dot": 8.74e-06,
        "meta_mean_motion_ddot": 0,
        "tle_line1": "1 28890U 05043A   25342.59814759  .00000874  00000+0  17844-3 0  9998",
        "tle_line2": "2 28890  98.2657 110.0956 0015163 153.8918 206.3051 14.63360846 72770"
      },
      "geometry": {
        "type": "Point",
        "coordinates": [
          -76.73675497537742,
          -40.83344253679614
        ]
      }
    },
    {
      "type": "Feature",
      "properties": {
        "norad_id": 33320,
        "name": "HUANJING 1A (HJ-1A)",
        "group": "dmc",
        "lat": -21.927892735479915,
        "lon": -25.45954846329814,
        "alt_km": 618.7663973589097,
        "timestamp": "2025-12-08T23:34:03.636318+00:00",
        "meta_object_name": "HUANJING 1A (HJ-1A)",
        "meta_object_id": "2008-041A",
        "meta_epoch": "2025-12-08T13:57:12.552192",
        "meta_mean_motion": 14.83375356,
        "meta_eccentricity": 0.00203905,
        "meta_inclination": 97.654,
        "meta_ra_of_asc_node": 331.0533,
        "meta_arg_of_pericenter": 47.5772,
        "meta_mean_anomaly": 312.7164,
        "meta_ephemeris_type": 0,
        "meta_classification_type": "U",
        "meta_norad_cat_id": 33320,
        "meta_element_set_no": 999,
        "meta_rev_at_epoch": 93014,
        "meta_bstar": 0.00036895792,
        "meta_mean_motion_dot": 2.985e-05,
        "meta_mean_motion_ddot": 0,
        "tle_line1": "1 33320U 08041A   25342.58139528  .00002985  00000+0  36896-3 0  9999",
        "tle_line2": "2 33320  97.6540 331.0533 0020390  47.5772 312.7164 14.83375356930144"
      },
      "geometry": {
        "type": "Point",
        "coordinates": [
          -25.45954846329814,
          -21.927892735479915
        ]
      }
    },
    {
      "type": "Feature",
      "properties": {
        "norad_id": 33321,
        "name": "HUANJING 1B (HJ-1B)",
        "group": "dmc",
        "lat": -27.257865121023563,
        "lon": 151.17846225580524,
        "alt_km": 639.4718753978532,
        "timestamp": "2025-12-08T23:34:03.636333+00:00",
        "meta_object_name": "HUANJING 1B (HJ-1B)",
        "meta_object_id": "2008-041B",
        "meta_epoch": "2025-12-08T14:32:27.904992",
        "meta_mean_motion": 14.82805678,
        "meta_eccentricity": 0.00382372,
        "meta_inclination": 97.6399,
        "meta_ra_of_asc_node": 334.7845,
        "meta_arg_of_pericenter": 88.9183,
        "meta_mean_anomaly": 271.6412,
        "meta_ephemeris_type": 0,
        "meta_classification_type": "U",
        "meta_norad_cat_id": 33321,
        "meta_element_set_no": 999,
        "meta_rev_at_epoch": 93016,
        "meta_bstar": 0.00029707706,
        "meta_mean_motion_dot": 2.382e-05,
        "meta_mean_motion_ddot": 0,
        "tle_line1": "1 33321U 08041B   25342.60587853  .00002382  00000+0  29708-3 0  9996",
        "tle_line2": "2 33321  97.6399 334.7845 0038237  88.9183 271.6412 14.82805678930162"
      },
      "geometry": {
        "type": "Point",
        "coordinates": [
          151.17846225580524,
          -27.257865121023563
        ]
      }
    },
    {
      "type": "Feature",
      "properties": {
        "norad_id": 33446,
        "name": "YAOGAN-4",
        "group": "dmc",
        "lat": 58.48111804006441,
        "lon": 106.23471492271312,
        "alt_km": 623.2083083974376,
        "timestamp": "2025-12-08T23:34:03.636346+00:00",
        "meta_object_name": "YAOGAN-4",
        "meta_object_id": "2008-061A",
        "meta_epoch": "2025-12-08T13:18:28.139040",
        "meta_mean_motion": 14.8266295,
        "meta_eccentricity": 0.00139333,
        "meta_inclination": 97.9177,
        "meta_ra_of_asc_node": 272.6947,
        "meta_arg_of_pericenter": 337.5968,
        "meta_mean_anomaly": 22.4635,
        "meta_ephemeris_type": 0,
        "meta_classification_type": "U",
        "meta_norad_cat_id": 33446,
        "meta_element_set_no": 999,
        "meta_rev_at_epoch": 91741,
        "meta_bstar": 0.00037017674,
        "meta_mean_motion_dot": 2.935e-05,
        "meta_mean_motion_ddot": 0,
        "tle_line1": "1 33446U 08061A   25342.55449235  .00002935  00000+0  37018-3 0  9998",
        "tle_line2": "2 33446  97.9177 272.6947 0013933 337.5968  22.4635 14.82662950917416"
      },
      "geometry": {
        "type": "Point",
        "coordinates": [
          106.23471492271312,
          58.48111804006441
        ]
      }
    },
    {
      "type": "Feature",
      "properties": {
        "norad_id": 35681,
        "name": "DEIMOS-1",
        "group": "dmc",
        "lat": -5.3997448779462,
        "lon": 144.49470761598326,
        "alt_km": 649.1050530626753,
        "timestamp": "2025-12-08T23:34:03.636357+00:00",
        "meta_object_name": "DEIMOS-1",
        "meta_object_id": "2009-041A",
        "meta_epoch": "2025-12-08T13:49:23.841696",
        "meta_mean_motion": 14.74943788,
        "meta_eccentricity": 0.00027054,
        "meta_inclination": 97.7153,
        "meta_ra_of_asc_node": 143.3735,
        "meta_arg_of_pericenter": 88.4928,
        "meta_mean_anomaly": 271.6592,
        "meta_ephemeris_type": 0,
        "meta_classification_type": "U",
        "meta_norad_cat_id": 35681,
        "meta_element_set_no": 999,
        "meta_rev_at_epoch": 87878,
        "meta_bstar": 0.00021527145,
        "meta_mean_motion_dot": 1.399e-05,
        "meta_mean_motion_ddot": 0,
        "tle_line1": "1 35681U 09041A   25342.57597039  .00001399  00000+0  21527-3 0  9999",
        "tle_line2": "2 35681  97.7153 143.3735 0002705  88.4928 271.6592 14.74943788878781"
      },
      "geometry": {
        "type": "Point",
        "coordinates": [
          144.49470761598326,
          -5.3997448779462
        ]
      }
    },
    {
      "type": "Feature",
      "properties": {
        "norad_id": 35683,
        "name": "UK-DMC 2",
        "group": "dmc",
        "lat": 0.569372014520563,
        "lon": 117.91245748073085,
        "alt_km": 646.314658493654,
        "timestamp": "2025-12-08T23:34:03.636368+00:00",
        "meta_object_name": "UK-DMC 2",
        "meta_object_id": "2009-041C",
        "meta_epoch": "2025-12-08T15:25:40.467936",
        "meta_mean_motion": 14.75609318,
        "meta_eccentricity": 0.00013671,
        "meta_inclination": 97.8564,
        "meta_ra_of_asc_node": 117.6616,
        "meta_arg_of_pericenter": 101.3416,
        "meta_mean_anomaly": 258.7948,
        "meta_ephemeris_type": 0,
        "meta_classification_type": "U",
        "meta_norad_cat_id": 35683,
        "meta_element_set_no": 999,
        "meta_rev_at_epoch": 87846,
        "meta_bstar": 0.00030450395,
        "meta_mean_motion_dot": 2.028e-05,
        "meta_mean_motion_ddot": 0,
        "tle_line1": "1 35683U 09041C   25342.64282949  .00002028  00000+0  30450-3 0  9995",
        "tle_line2": "2 35683  97.8564 117.6616 0001367 101.3416 258.7948 14.75609318878467"
      },
      "geometry": {
        "type": "Point",
        "coordinates": [
          117.91245748073085,
          0.569372014520563
        ]
      }
    },
    {
      "type": "Feature",
      "properties": {
        "norad_id": 40715,
        "name": "DMC3-FM1",
        "group": "dmc",
        "lat": -79.60826157647637,
        "lon": -102.39132460668756,
        "alt_km": 617.7809141861435,
        "timestamp": "2025-12-08T23:34:03.636379+00:00",
        "meta_object_name": "DMC3-FM1",
        "meta_object_id": "2015-032A",
        "meta_epoch": "2025-12-08T14:14:25.164384",
        "meta_mean_motion": 14.85430334,
        "meta_eccentricity": 0.00048921,
        "meta_inclination": 97.6702,
        "meta_ra_of_asc_node": 209.9369,
        "meta_arg_of_pericenter": 336.4844,
        "meta_mean_anomaly": 23.6147,
        "meta_ephemeris_type": 0,
        "meta_classification_type": "U",
        "meta_norad_cat_id": 40715,
        "meta_element_set_no": 999,
        "meta_rev_at_epoch": 56161,
        "meta_bstar": 0.00018572545,
        "meta_mean_motion_dot": 1.549e-05,
        "meta_mean_motion_ddot": 0,
        "tle_line1": "1 40715U 15032A   25342.59334681  .00001549  00000+0  18573-3 0  9998",
        "tle_line2": "2 40715  97.6702 209.9369 0004892 336.4844  23.6147 14.85430334561610"
      },
      "geometry": {
        "type": "Point",
        "coordinates": [
          -102.39132460668756,
          -79.60826157647637
        ]
      }
    },
    {
      "type": "Feature",
      "properties": {
        "norad_id": 40716,
        "name": "DMC3-FM2",
        "group": "dmc",
        "lat": 22.828836963169817,
        "lon": 35.007100526055986,
        "alt_km": 615.7459956480361,
        "timestamp": "2025-12-08T23:34:03.636390+00:00",
        "meta_object_name": "DMC3-FM2",
        "meta_object_id": "2015-032B",
        "meta_epoch": "2025-12-08T14:46:49.263744",
        "meta_mean_motion": 14.8543175,
        "meta_eccentricity": 0.00055261,
        "meta_inclination": 97.6759,
        "meta_ra_of_asc_node": 211.3995,
        "meta_arg_of_pericenter": 340.8667,
        "meta_mean_anomaly": 19.234,
        "meta_ephemeris_type": 0,
        "meta_classification_type": "U",
        "meta_norad_cat_id": 40716,
        "meta_element_set_no": 999,
        "meta_rev_at_epoch": 56161,
        "meta_bstar": 0.00019062353,
        "meta_mean_motion_dot": 1.591e-05,
        "meta_mean_motion_ddot": 0,
        "tle_line1": "1 40716U 15032B   25342.61584796  .00001591  00000+0  19062-3 0  9997",
        "tle_line2": "2 40716  97.6759 211.3995 0005526 340.8667  19.2340 14.85431750561611"
      },
      "geometry": {
        "type": "Point",
        "coordinates": [
          35.007100526055986,
          22.828836963169817
        ]
      }
    },
    {
      "type": "Feature",
      "properties": {
        "norad_id": 40717,
        "name": "DMC3-FM3",
        "group": "dmc",
        "lat": 40.93610234005703,
        "lon": -153.33936933484753,
        "alt_km": 607.3124472167447,
        "timestamp": "2025-12-08T23:34:03.636401+00:00",
        "meta_object_name": "DMC3-FM3",
        "meta_object_id": "2015-032C",
        "meta_epoch": "2025-12-08T15:17:55.085568",
        "meta_mean_motion": 14.85422376,
        "meta_eccentricity": 0.00048848,
        "meta_inclination": 97.6814,
        "meta_ra_of_asc_node": 213.0507,
        "meta_arg_of_pericenter": 342.9928,
        "meta_mean_anomaly": 17.1123,
        "meta_ephemeris_type": 0,
        "meta_classification_type": "U",
        "meta_norad_cat_id": 40717,
        "meta_element_set_no": 999,
        "meta_rev_at_epoch": 56162,
        "meta_bstar": 0.00015706405,
        "meta_mean_motion_dot": 1.302e-05,
        "meta_mean_motion_ddot": 0,
        "tle_line1": "1 40717U 15032C   25342.63744312  .00001302  00000+0  15706-3 0  9993",
        "tle_line2": "2 40717  97.6814 213.0507 0004884 342.9928  17.1123 14.85422376561622"
      },
      "geometry": {
        "type": "Point",
        "coordinates": [
          -153.33936933484753,
          40.93610234005703
        ]
      }
    }
  ]
}